{"type": "FeatureCollection", "features": [ {"type": "Feature", "properties": {"norad_id": 40118, "name": "GAOFEN-2", "group": "resource", "lat": -75.55071633307188, "lon": -154.7700671611575, "alt_km": 640.7937499114605, "timestamp": "2025-12-25T07:00:33.699734+00:00", "meta": {"OBJECT_NAME": "GAOFEN-2", "OBJECT_ID": "2014-049A", "EPOCH": "2025-12-24T23:21:38.239200", "MEAN_MOTION": 14.80626646, "ECCENTRICITY": 0.00087405, "INCLINATION": 98.0365, "RA_OF_ASC_NODE": 58.1621, "ARG_OF_PERICENTER": 79.2169, "MEAN_ANOMALY": 281.0026, "EPHEMERIS_TYPE": 0, "CLASSIFICATION_TYPE": "U", "NORAD_CAT_ID": 40118, "ELEMENT_SET_NO": 999, "REV_AT_EPOCH": 61345, "BSTAR": 3.484934e-05, "MEAN_MOTION_DOT": 2.14e-06, "MEAN_MOTION_DDOT": 0}, "tle": {"line1": "1 40118U 14049A   25358.97335925  .00000214  00000+0  34849-4 0  9996", "line2": "2 40118  98.0365  58.1621 0008740  79.2169 281.0026 14.80626646613454"}}, "geometry": {"type": "Point", "coordinates": [-154.7700671611575, -75.55071633307188]}}, {"type": "Feature", "properties": {"norad_id": 40143, "name": "YAOGAN-21", "group": "resource", "lat": 5.967894223849529, "lon": 41.303597081235424, "alt_km": 490.8628209606004, "timestamp": "2025-12-25T07:00:33.699744+00:00", "meta": {"OBJECT_NAME": "YAOGAN-21", "OBJECT_ID": "2014-053A", "EPOCH": "2025-12-24T23:06:10.562400", "MEAN_MOTION": 15.23793316, "ECCENTRICITY": 0.00085174, "INCLINATION": 97.1737, "RA_OF_ASC_NODE": 41.7429, "ARG_OF_PERICENTER": 1.9406, "MEAN_ANOMALY": 358.1863, "EPHEMERIS_TYPE": 0, "CLASSIFICATION_TYPE": "U", "NORAD_CAT_ID": 40143, "ELEMENT_SET_NO": 999, "REV_AT_EPOCH": 62840, "BSTAR": 0.00018588458, "MEAN_MOTION_DOT": 4.411e-05, "MEAN_MOTION_DDOT": 0}, "tle": {"line1": "1 40143U 14053A   25358.96262225  .00004411  00000+0  18588-3 0  9994", "line2": "2 40143  97.1737  41.7429 0008517   1.9406 358.1863 15.23793316628400"}}, "geometry": {"type": "Point", "coordinates": [41.303597081235424, 5.967894223849529]}}, {"type": "Feature", "properties": {"norad_id": 40275, "name": "YAOGAN-22", "group": "resource", "lat": 11.435471987963751, "lon": -34.91038648319038, "alt_km": 1200.0059380657176, "timestamp": "2025-12-25T07:00:33.699754+00:00", "meta": {"OBJECT_NAME": "YAOGAN-22", "OBJECT_ID": "2014-063A", "EPOCH": "2025-12-24T21:01:48.725760", "MEAN_MOTION": 13.15523235, "ECCENTRICITY": 0.00060853, "INCLINATION": 100.743, "RA_OF_ASC_NODE": 142.4674, "ARG_OF_PERICENTER": 219.2069, "MEAN_ANOMALY": 140.8602, "EPHEMERIS_TYPE": 0, "CLASSIFICATION_TYPE": "U", "NORAD_CAT_ID": 40275, "ELEMENT_SET_NO": 999, "REV_AT_EPOCH": 53689, "BSTAR": 7.6375234e-05, "MEAN_MOTION_DOT": -1.8e-07, "MEAN_MOTION_DDOT": 0}, "tle": {"line1": "1 40275U 14063A   25358.87625840 -.00000018  00000+0  76375-4 0  9996", "line2": "2 40275 100.7430 142.4674 0006085 219.2069 140.8602 13.15523235536893"}}, "geometry": {"type": "Point", "coordinates": [-34.91038648319038, 11.435471987963751]}}, {"type": "Feature", "properties": {"norad_id": 40298, "name": "ASNARO", "group": "resource", "lat": -47.981357815136384, "lon": -113.32047812997067, "alt_km": 516.6133145631447, "timestamp": "2025-12-25T07:00:33.699764+00:00", "meta": {"OBJECT_NAME": "ASNARO", "OBJECT_ID": "2014-070A", "EPOCH": "2025-12-24T22:06:23.474592", "MEAN_MOTION": 15.19730842, "ECCENTRICITY": 0.00058245, "INCLINATION": 97.3636, "RA_OF_ASC_NODE": 74.5699, "ARG_OF_PERICENTER": 89.5435, "MEAN_ANOMALY": 270.6467, "EPHEMERIS_TYPE": 0, "CLASSIFICATION_TYPE": "U", "NORAD_CAT_ID": 40298, "ELEMENT_SET_NO": 999, "REV_AT_EPOCH": 61754, "BSTAR": 0.00017736012, "MEAN_MOTION_DOT": 3.724e-05, "MEAN_MOTION_DDOT": 0}, "tle": {"line1": "1 40298U 14070A   25358.92110503  .00003724  00000+0  17736-3 0  9991", "line2": "2 40298  97.3636  74.5699 0005824  89.5435 270.6467 15.19730842617547"}}, "geometry": {"type": "Point", "coordinates": [-113.32047812997067, -47.981357815136384]}}, {"type": "Feature", "properties": {"norad_id": 40310, "name": "YAOGAN-24", "group": "resource", "lat": 41.104542381444745, "lon": 123.29422548640963, "alt_km": 632.5237954779031, "timestamp": "2025-12-25T07:00:33.699774+00:00", "meta": {"OBJECT_NAME": "YAOGAN-24", "OBJECT_ID": "2014-072A", "EPOCH": "2025-12-24T22:41:15.756864", "MEAN_MOTION": 14.76202505, "ECCENTRICITY": 0.00151991, "INCLINATION": 98.1233, "RA_OF_ASC_NODE": 130.1045, "ARG_OF_PERICENTER": 101.5622, "MEAN_ANOMALY": 258.7294, "EPHEMERIS_TYPE": 0, "CLASSIFICATION_TYPE": "U", "NORAD_CAT_ID": 40310, "ELEMENT_SET_NO": 999, "REV_AT_EPOCH": 59801, "BSTAR": 0.00021669507, "MEAN_MOTION_DOT": 1.449e-05, "MEAN_MOTION_DDOT": 0}, "tle": {"line1": "1 40310U 14072A   25358.94532126  .00001449  00000+0  21670-3 0  9993", "line2": "2 40310  98.1233 130.1045 0015199 101.5622 258.7294 14.76202505598014"}}, "geometry": {"type": "Point", "coordinates": [123.29422548640963, 41.104542381444745]}}, {"type": "Feature", "properties": {"norad_id": 40336, "name": "CBERS 4", "group": "resource", "lat": 70.81676139072378, "lon": -98.21962179476598, "alt_km": 765.1318999124851, "timestamp": "2025-12-25T07:00:33.699784+00:00", "meta": {"OBJECT_NAME": "CBERS 4", "OBJECT_ID": "2014-079A", "EPOCH": "2025-12-24T23:49:12.224640", "MEAN_MOTION": 14.35522015, "ECCENTRICITY": 0.00018941, "INCLINATION": 98.3289, "RA_OF_ASC_NODE": 56.589, "ARG_OF_PERICENTER": 99.5401, "MEAN_ANOMALY": 260.5999, "EPHEMERIS_TYPE": 0, "CLASSIFICATION_TYPE": "U", "NORAD_CAT_ID": 40336, "ELEMENT_SET_NO": 999, "REV_AT_EPOCH": 57896, "BSTAR": 4.2390737e-05, "MEAN_MOTION_DOT": 8e-07, "MEAN_MOTION_DDOT": 0}, "tle": {"line1": "1 40336U 14079A   25358.99250260  .00000080  00000+0  42391-4 0  9993", "line2": "2 40336  98.3289  56.5890 0001894  99.5401 260.5999 14.35522015578963"}}, "geometry": {"type": "Point", "coordinates": [-98.21962179476598, 70.81676139072378]}}, {"type": "Feature", "properties": {"norad_id": 40362, "name": "YAOGAN-26", "group": "resource", "lat": 71.30773569693729, "lon": -21.980424922551354, "alt_km": 439.58960999309875, "timestamp": "2025-12-25T07:00:33.699795+00:00", "meta": {"OBJECT_NAME": "YAOGAN-26", "OBJECT_ID": "2014-088A", "EPOCH": "2025-12-24T22:53:47.589792", "MEAN_MOTION": 15.39732597, "ECCENTRICITY": 0.00043721, "INCLINATION": 97.0642, "RA_OF_ASC_NODE": 359.1954, "ARG_OF_PERICENTER": 351.6283, "MEAN_ANOMALY": 8.489, "EPHEMERIS_TYPE": 0, "CLASSIFICATION_TYPE": "U", "NORAD_CAT_ID": 40362, "ELEMENT_SET_NO": 999, "REV_AT_EPOCH": 61082, "BSTAR": 0.00076789752, "MEAN_MOTION_DOT": 0.0003038, "MEAN_MOTION_DDOT": 0}, "tle": {"line1": "1 40362U 14088A   25358.95402303  .00030380  00000+0  76790-3 0  9990", "line2": "2 40362  97.0642 359.1954 0004372 351.6283   8.4890 15.39732597610822"}}, "geometry": {"type": "Point", "coordinates": [-21.980424922551354, 71.30773569693729]}}, {"type": "Feature", "properties": {"norad_id": 40376, "name": "SMAP", "group": "resource", "lat": 53.24489654554102, "lon": -165.13201873296245, "alt_km": 676.6305690104218, "timestamp": "2025-12-25T07:00:33.699805+00:00", "meta": {"OBJECT_NAME": "SMAP", "OBJECT_ID": "2015-003A", "EPOCH": "2025-12-24T22:13:51.193344", "MEAN_MOTION": 14.63359655, "ECCENTRICITY": 0.00012324, "INCLINATION": 98.129, "RA_OF_ASC_NODE": 3.4745, "ARG_OF_PERICENTER": 92.182, "MEAN_ANOMALY": 267.9523, "EPHEMERIS_TYPE": 0, "CLASSIFICATION_TYPE": "U", "NORAD_CAT_ID": 40376, "ELEMENT_SET_NO": 999, "REV_AT_EPOCH": 58213, "BSTAR": 0.00011540343, "MEAN_MOTION_DOT": 5.49e-06, "MEAN_MOTION_DDOT": 0}, "tle": {"line1": "1 40376U 15003A   25358.92628696  .00000549  00000+0  11540-3 0  9991", "line2": "2 40376  98.1290   3.4745 0001232  92.1820 267.9523 14.63359655582134"}}, "geometry": {"type": "Point", "coordinates": [-165.13201873296245, 53.24489654554102]}}, {"type": "Feature", "properties": {"norad_id": 40536, "name": "KOMPSAT-3A", "group": "resource", "lat": -43.41751428585924, "lon": 146.99957665023405, "alt_km": 442.04991000264636, "timestamp": "2025-12-25T07:00:33.699815+00:00", "meta": {"OBJECT_NAME": "KOMPSAT-3A", "OBJECT_ID": "2015-014A", "EPOCH": "2025-12-24T22:16:06.806784", "MEAN_MOTION": 15.44386187, "ECCENTRICITY": 0.00056157, "INCLINATION": 97.6806, "RA_OF_ASC_NODE": 333.9516, "ARG_OF_PERICENTER": 100.4335, "MEAN_ANOMALY": 259.7546, "EPHEMERIS_TYPE": 0, "CLASSIFICATION_TYPE": "U", "NORAD_CAT_ID": 40536, "ELEMENT_SET_NO": 999, "REV_AT_EPOCH": 59483, "BSTAR": 0.00042915786, "MEAN_MOTION_DOT": 0.00019758, "MEAN_MOTION_DDOT": 0}, "tle": {"line1": "1 40536U 15014A   25358.92785656  .00019758  00000+0  42916-3 0  9994", "line2": "2 40536  97.6806 333.9516 0005615 100.4335 259.7546 15.44386187594833"}}, "geometry": {"type": "Point", "coordinates": [146.99957665023405, -43.41751428585924]}}, {"type": "Feature", "properties": {"norad_id": 40697, "name": "SENTINEL-2A", "group": "resource", "lat": -33.47835239510867, "lon": 77.37429057886047, "alt_km": 795.5660766887086, "timestamp": "2025-12-25T07:00:33.699826+00:00", "meta": {"OBJECT_NAME": "SENTINEL-2A", "OBJECT_ID": "2015-028A", "EPOCH": "2025-12-24T22:46:33.117024", "MEAN_MOTION": 14.30810075, "ECCENTRICITY": 0.00010589, "INCLINATION": 98.5728, "RA_OF_ASC_NODE": 71.3106, "ARG_OF_PERICENTER": 90.2804, "MEAN_ANOMALY": 269.85, "EPHEMERIS_TYPE": 0, "CLASSIFICATION_TYPE": "U", "NORAD_CAT_ID": 40697, "ELEMENT_SET_NO": 999, "REV_AT_EPOCH": 54881, "BSTAR": 6.0320191e-05, "MEAN_MOTION_DOT": 1.14e-06, "MEAN_MOTION_DDOT": 0}, "tle": {"line1": "1 40697U 15028A   25358.94899441  .00000114  00000+0  60320-4 0  9993", "line2": "2 40697  98.5728  71.3106 0001058  90.2804 269.8500 14.30810075548817"}}, "geometry": {"type": "Point", "coordinates": [77.37429057886047, -33.47835239510867]}}]}